[{"OBJECT_NAME":"JILIN-1 08","OBJECT_ID":"2018-008F","EPOCH":"2026-03-09T22:37:53.184288","MEAN_MOTION":15.32205976,"ECCENTRICITY":0.00081321,"INCLINATION":97.1902,"RA_OF_ASC_NODE":90.9961,"ARG_OF_PERICENTER":76.0646,"MEAN_ANOMALY":284.15,"EPHEMERIS_TYPE":0,"CLASSIFICATION_TYPE":"U","NORAD_CAT_ID":43160,"ELEMENT_SET_NO":999,"REV_AT_EPOCH":44974,"BSTAR":0.00036689195,"MEAN_MOTION_DOT":0.00011349,"MEAN_MOTION_DDOT":0},{"OBJECT_NAME":"STARLINK-35036","OBJECT_ID":"2025-192C","EPOCH":"2026-03-09T22:00:01.999584","MEAN_MOTION":15.30157604,"ECCENTRICITY":0.0001095,"INCLINATION":53.1584,"RA_OF_ASC_NODE":231.3752,"ARG_OF_PERICENTER":74.8228,"MEAN_ANOMALY":79.2617,"EPHEMERIS_TYPE":0,"CLASSIFICATION_TYPE":"U","NORAD_CAT_ID":65406,"ELEMENT_SET_NO":999,"REV_AT_EPOCH":589,"BSTAR":0.0022319849,"MEAN_MOTION_DOT":0.0006625,"MEAN_MOTION_DDOT":0}]
